$$SOE
2460728.500000000, A.D. 2025-Feb-22 00:00:00.0000, -4.773177145851375E+08, 4.943124749633314E+07, -4.678319382918610E+07,
2460735.500000000, A.D. 2025-Mar-01 00:00:00.0000, -4.808563391376261E+08, 4.028243089068383E+07, -4.733297472269005E+07,
2460742.500000000, A.D. 2025-Mar-08 00:00:00.0000, -4.841901383218907E+08, 3.111640099540218E+07, -4.786259459610854E+07,
2460749.500000000, A.D. 2025-Mar-15 00:00:00.0000, -4.873210795969866E+08, 2.193728164972960E+07, -4.837216337842289E+07,
2460756.500000000, A.D. 2025-Mar-22 00:00:00.0000, -4.902511575028567E+08, 1.274907111996469E+07, -4.886179607704024E+07,
2460763.500000000, A.D. 2025-Mar-29 00:00:00.0000, -4.929823906894954E+08, 3.555644363907363E+06, -4.933161237192482E+07,
2460770.500000000, A.D. 2025-Apr-05 00:00:00.0000, -4.955168175437260E+08, -5.639243886112090E+06, -4.978173632218645E+07,
2460777.500000000, A.D. 2025-Apr-12 00:00:00.0000, -4.978564923200539E+08, -1.483195512666851E+07, -5.021229599833904E+07,
2460784.500000000, A.D. 2025-Apr-19 00:00:00.0000, -5.000034819471244E+08, -2.401896306177432E+07, -5.062342309429566E+07,
2460791.500000000, A.D. 2025-Apr-26 00:00:00.0000, -5.019598632241102E+08, -3.319684976393750E+07, -5.101525256001785E+07,
2460798.500000000, A.D. 2025-May-03 00:00:00.0000, -5.037277202792824E+08, -4.236230200093608E+07, -5.138792226283047E+07,
2460805.500000000, A.D. 2025-May-10 00:00:00.0000, -5.053091422478672E+08, -5.151210772103004E+07, -5.174157267819561E+07,
2460812.500000000, A.D. 2025-May-17 00:00:00.0000, -5.067062211182794E+08, -6.064315273856004E+07, -5.207634661538643E+07,
2460819.500000000, A.D. 2025-May-24 00:00:00.0000, -5.079210495590940E+08, -6.975241767499638E+07, -5.239238899711790E+07,
2460826.500000000, A.D. 2025-May-31 00:00:00.0000, -5.089557182958500E+08, -7.883697484474336E+07, -5.268984670468184E+07,
2460833.500000000, A.D. 2025-Jun-07 00:00:00.0000, -5.098123134260718E+08, -8.789398388096444E+07, -5.296886835201127E+07,
2460840.500000000, A.D. 2025-Jun-14 00:00:00.0000, -5.104929160255379E+08, -9.692068676840211E+07, -5.322960382512124E+07,
2460847.500000000, A.D. 2025-Jun-21 00:00:00.0000, -5.109996028193432E+08, -1.059144055543329E+08, -5.347220396499291E+07,
2460854.500000000, A.D. 2025-Jun-28 00:00:00.0000, -5.113344447803670E+08, -1.148725409714739E+08, -5.369682053561622E+07,
2460861.500000000, A.D. 2025-Jul-05 00:00:00.0000, -5.114995051618382E+08, -1.237925698145238E+08, -5.390360616056427E+07,
2460868.500000000, A.D. 2025-Jul-12 00:00:00.0000, -5.114968381456022E+08, -1.326720418745018E+08, -5.409271418357578E+07,
2460875.500000000, A.D. 2025-Jul-19 00:00:00.0000, -5.113284879086701E+08, -1.415085770048279E+08, -5.426429851673477E+07,
2460882.500000000, A.D. 2025-Jul-26 00:00:00.0000, -5.109964878911439E+08, -1.502998623740264E+08, -5.441851349938742E+07,
2460889.500000000, A.D. 2025-Aug-02 00:00:00.0000, -5.105028601934432E+08, -1.590436498812975E+08, -5.455551377121750E+07,
2460896.500000000, A.D. 2025-Aug-09 00:00:00.0000, -5.098496150729659E+08, -1.677377537473093E+08, -5.467545416197491E+07,
2460903.500000000, A.D. 2025-Aug-16 00:00:00.0000, -5.090387504571649E+08, -1.763800483410812E+08, -5.477848960923723E+07,
2460910.500000000, A.D. 2025-Aug-23 00:00:00.0000, -5.080722511747473E+08, -1.849684662240602E+08, -5.486477512885855E+07,
2460917.500000000, A.D. 2025-Aug-30 00:00:00.0000, -5.069520875706667E+08, -1.935009956948738E+08, -5.493446580907772E+07,
2460924.500000000, A.D. 2025-Sep-06 00:00:00.0000, -5.056802149177967E+08, -2.019756768321324E+08, -5.498771661562642E+07,
2460931.500000000, A.D. 2025-Sep-13 00:00:00.0000, -5.042585752914382E+08, -2.103905985162590E+08, -5.502468205682480E+07,
2460938.500000000, A.D. 2025-Sep-20 00:00:00.0000, -5.026890986300482E+08, -2.187438980728579E+08, -5.504551614276652E+07,
2460945.500000000, A.D. 2025-Sep-27 00:00:00.0000, -5.009737019202117E+08, -2.270337604233122E+08, -5.505037248074456E+07,
2460952.500000000, A.D. 2025-Oct-04 00:00:00.0000, -4.991142885183994E+08, -2.352584162005869E+08, -5.503940427712041E+07,
2460959.500000000, A.D. 2025-Oct-11 00:00:00.0000, -4.971127479793189E+08, -2.434161397710792E+08, -5.501276428789252E+07,
2460966.500000000, A.D. 2025-Oct-18 00:00:00.0000, -4.949709561042024E+08, -2.515052474349931E+08, -5.497060476612240E+07,
2460973.500000000, A.D. 2025-Oct-25 00:00:00.0000, -4.926907750670900E+08, -2.595240957920481E+08, -5.491307741794510E+07,
2460980.500000000, A.D. 2025-Nov-01 00:00:00.0000, -4.902740535774461E+08, -2.674710802544919E+08, -5.484033336936238E+07,
2460987.500000000, A.D. 2025-Nov-08 00:00:00.0000, -4.877226270423290E+08, -2.753446337360606E+08, -5.475252314939536E+07,
2460994.500000000, A.D. 2025-Nov-15 00:00:00.0000, -4.850383175779540E+08, -2.831432255725268E+08, -5.464979670777002E+07,
2461001.500000000, A.D. 2025-Nov-22 00:00:00.0000, -4.822229334654887E+08, -2.908653604508026E+08, -5.453230348586752E+07,
2461008.500000000, A.D. 2025-Nov-29 00:00:00.0000, -4.792782682015506E+08, -2.985095762088240E+08, -5.440019243388519E+07,
2461015.500000000, A.D. 2025-Dec-06 00:00:00.0000, -4.762061014179672E+08, -3.060744406400588E+08, -5.425361177625886E+07,
2461022.500000000, A.D. 2025-Dec-13 00:00:00.0000, -4.730082012351221E+08, -3.135585506717864E+08, -5.409270884062739E+07,
2461029.500000000, A.D. 2025-Dec-20 00:00:00.0000, -4.696863245549738E+08, -3.209605328929273E+08, -5.391763018731946E+07,
2461036.500000000, A.D. 2025-Dec-27 00:00:00.0000, -4.662422163669261E+08, -3.282790428381622E+08, -5.372852172912388E+07,
2461043.500000000, A.D. 2026-Jan-03 00:00:00.0000, -4.626776095246808E+08, -3.355127636415182E+08, -5.352552875766499E+07,
2461050.500000000, A.D. 2026-Jan-10 00:00:00.0000, -4.589942248831690E+08, -3.426604047360117E+08, -5.330879594176939E+07,
2461057.500000000, A.D. 2026-Jan-17 00:00:00.0000, -4.551937715620430E+08, -3.497207006886505E+08, -5.307846732646628E+07,
2461064.500000000, A.D. 2026-Jan-24 00:00:00.0000, -4.512779472569588E+08, -3.566924101457817E+08, -5.283468633770956E+07,
2461071.500000000, A.D. 2026-Jan-31 00:00:00.0000, -4.472484385743617E+08, -3.635743148937731E+08, -5.257759579532573E+07,
2461078.500000000, A.D. 2026-Feb-07 00:00:00.0000, -4.431069213273890E+08, -3.703652190899822E+08, -5.230733794424511E+07,
2461085.500000000, A.D. 2026-Feb-14 00:00:00.0000, -4.388550605389937E+08, -3.770639486770455E+08, -5.202405452822232E+07,
2461092.500000000, A.D. 2026-Feb-21 00:00:00.0000, -4.344945097639291E+08, -3.836693504013119E+08, -5.172788689418754E+07,
2461099.500000000, A.D. 2026-Feb-28 00:00:00.0000, -4.300269108135372E+08, -3.901802892799323E+08, -5.141897593322411E+07,
2461106.500000000, A.D. 2026-Mar-07 00:00:00.0000, -4.254538959409112E+08, -3.965956464651023E+08, -5.109746182854125E+07,
2461113.500000000, A.D. 2026-Mar-14 00:00:00.0000, -4.207770897102805E+08, -4.029143198374811E+08, -5.076348405562344E+07,
2461120.500000000, A.D. 2026-Mar-21 00:00:00.0000, -4.159981087678691E+08, -4.091352244299908E+08, -5.041718156115842E+07,
2461127.500000000, A.D. 2026-Mar-28 00:00:00.0000, -4.111185615234160E+08, -4.152572916519872E+08, -5.005869285213354E+07,
2461134.500000000, A.D. 2026-Apr-04 00:00:00.0000, -4.061400483455078E+08, -4.212794682781316E+08, -4.968815601835585E+07,
2461141.500000000, A.D. 2026-Apr-11 00:00:00.0000, -4.010641619962356E+08, -4.272007155609388E+08, -4.930570874268374E+07,
2461148.500000000, A.D. 2026-Apr-18 00:00:00.0000, -3.958924881454602E+08, -4.330200084729450E+08, -4.891148831392044E+07,
2461155.500000000, A.D. 2026-Apr-25 00:00:00.0000, -3.906266059185017E+08, -4.387363350630616E+08, -4.850563164515704E+07,
2461162.500000000, A.D. 2026-May-02 00:00:00.0000, -3.852680884461618E+08, -4.443486959559009E+08, -4.808827530257821E+07,
2461169.500000000, A.D. 2026-May-09 00:00:00.0000, -3.798185032919709E+08, -4.498561040594149E+08, -4.765955556134272E+07,
2461176.500000000, A.D. 2026-May-16 00:00:00.0000, -3.742794123781490E+08, -4.552575843416300E+08, -4.721960851170507E+07,
2461183.500000000, A.D. 2026-May-23 00:00:00.0000, -3.686523713579049E+08, -4.605521726532327E+08, -4.676857013643619E+07,
2461190.500000000, A.D. 2026-May-30 00:00:00.0000, -3.629389305118751E+08, -4.657389132755849E+08, -4.630657614272198E+07,
2461197.500000000, A.D. 2026-Jun-06 00:00:00.0000, -3.571406374854319E+08, -4.708168584673715E+08, -4.583376178706482E+07,
2461204.500000000, A.D. 2026-Jun-13 00:00:00.0000, -3.512590382010444E+08, -4.757850698111653E+08, -4.535026201343128E+07,
2461211.500000000, A.D. 2026-Jun-20 00:00:00.0000, -3.452956764473470E+08, -4.806426184336995E+08, -4.485621161983404E+07,
2461218.500000000, A.D. 2026-Jun-27 00:00:00.0000, -3.392520938437172E+08, -4.853885844390803E+08, -4.435174532558072E+07,
2461225.500000000, A.D. 2026-Jul-04 00:00:00.0000, -3.331298301807100E+08, -4.900220563290524E+08, -4.383699780274719E+07,
2461232.500000000, A.D. 2026-Jul-11 00:00:00.0000, -3.269304238825859E+08, -4.945421305414553E+08, -4.331210370619339E+07,
2461239.500000000, A.D. 2026-Jul-18 00:00:00.0000, -3.206554124993455E+08, -4.989479110803513E+08, -4.277719770874748E+07,
2461246.500000000, A.D. 2026-Jul-25 00:00:00.0000, -3.143063332038636E+08, -5.032385092342991E+08, -4.223241454375166E+07,
2461253.500000000, A.D. 2026-Aug-01 00:00:00.0000, -3.078847232459120E+08, -5.074130434301695E+08, -4.167788906344682E+07,
2461260.500000000, A.D. 2026-Aug-08 00:00:00.0000, -3.013921201480194E+08, -5.114706392579165E+08, -4.111375633596957E+07,
2461267.500000000, A.D. 2026-Aug-15 00:00:00.0000, -2.948300612281502E+08, -5.154104292157671E+08, -4.054015178236666E+07,
2461274.500000000, A.D. 2026-Aug-22 00:00:00.0000, -2.882000832105559E+08, -5.192315509544023E+08, -3.995721118414620E+07,
2461281.500000000, A.D. 2026-Aug-29 00:00:00.0000, -2.815037242142074E+08, -5.229331453925855E+08, -3.936507046369451E+07,
2461288.500000000, A.D. 2026-Sep-05 00:00:00.0000, -2.747425259855857E+08, -5.265143575723996E+08, -3.876386566775805E+07,
$$EOE